{"type": "FeatureCollection", "features": [ {"type": "Feature", "properties": {"norad_id": 33980, "name": "COSMOS 2251 DEB", "group": "cosmos-2251-debris", "lat": -2.935696064028448, "lon": 32.371684254463275, "alt_km": 720.0030904708938, "timestamp": "2025-12-26T11:25:45.583926+00:00", "meta": {"OBJECT_NAME": "COSMOS 2251 DEB", "OBJECT_ID": "1993-036FP", "EPOCH": "2025-12-26T03:31:00.115104", "MEAN_MOTION": 14.58722825, "ECCENTRICITY": 0.0027838, "INCLINATION": 74.0208, "RA_OF_ASC_NODE": 33.8418, "ARG_OF_PERICENTER": 176.5263, "MEAN_ANOMALY": 249.9026, "EPHEMERIS_TYPE": 0, "CLASSIFICATION_TYPE": "U", "NORAD_CAT_ID": 33980, "ELEMENT_SET_NO": 999, "REV_AT_EPOCH": 88990, "BSTAR": 0.00054124, "MEAN_MOTION_DOT": 2.51e-05, "MEAN_MOTION_DDOT": 0}, "tle": {"line1": "1 33980U 93036FP  25360.14652911  .00002510  00000+0  54124-3 0  9995", "line2": "2 33980  74.0208  33.8418 0027838 176.5263 249.9026 14.58722825889901"}}, "geometry": {"type": "Point", "coordinates": [32.371684254463275, -2.935696064028448]}}, {"type": "Feature", "properties": {"norad_id": 33982, "name": "COSMOS 2251 DEB", "group": "cosmos-2251-debris", "lat": -66.59080735398037, "lon": -67.50890028115677, "alt_km": 696.0176460237108, "timestamp": "2025-12-26T11:25:45.583935+00:00", "meta": {"OBJECT_NAME": "COSMOS 2251 DEB", "OBJECT_ID": "1993-036FR", "EPOCH": "2025-12-25T22:44:40.606944", "MEAN_MOTION": 14.6027252, "ECCENTRICITY": 0.0075541, "INCLINATION": 74.0714, "RA_OF_ASC_NODE": 334.7715, "ARG_OF_PERICENTER": 15.5993, "MEAN_ANOMALY": 15.3476, "EPHEMERIS_TYPE": 0, "CLASSIFICATION_TYPE": "U", "NORAD_CAT_ID": 33982, "ELEMENT_SET_NO": 999, "REV_AT_EPOCH": 89352, "BSTAR": 0.0005887, "MEAN_MOTION_DOT": 2.928e-05, "MEAN_MOTION_DDOT": 0}, "tle": {"line1": "1 33982U 93036FR  25359.94769221  .00002928  00000+0  58870-3 0  9991", "line2": "2 33982  74.0714 334.7715 0075541  15.5993  15.3476 14.60272520893526"}}, "geometry": {"type": "Point", "coordinates": [-67.50890028115677, -66.59080735398037]}}, {"type": "Feature", "properties": {"norad_id": 33983, "name": "COSMOS 2251 DEB", "group": "cosmos-2251-debris", "lat": 65.66384096468889, "lon": -97.97476780969272, "alt_km": 722.6330811629941, "timestamp": "2025-12-26T11:25:45.583944+00:00", "meta": {"OBJECT_NAME": "COSMOS 2251 DEB", "OBJECT_ID": "1993-036FS", "EPOCH": "2025-12-25T15:10:56.088768", "MEAN_MOTION": 14.50723912, "ECCENTRICITY": 0.00211, "INCLINATION": 74.0505, "RA_OF_ASC_NODE": 122.8299, "ARG_OF_PERICENTER": 224.5856, "MEAN_ANOMALY": 160.0722, "EPHEMERIS_TYPE": 0, "CLASSIFICATION_TYPE": "U", "NORAD_CAT_ID": 33983, "ELEMENT_SET_NO": 999, "REV_AT_EPOCH": 88816, "BSTAR": 0.00062158, "MEAN_MOTION_DOT": 2.424e-05, "MEAN_MOTION_DDOT": 0}, "tle": {"line1": "1 33983U 93036FS  25359.63259362  .00002424  00000+0  62158-3 0  9993", "line2": "2 33983  74.0505 122.8299 0021100 224.5856 160.0722 14.50723912888161"}}, "geometry": {"type": "Point", "coordinates": [-97.97476780969272, 65.66384096468889]}}, {"type": "Feature", "properties": {"norad_id": 33984, "name": "COSMOS 2251 DEB", "group": "cosmos-2251-debris", "lat": -73.91103534495704, "lon": -123.242408730221, "alt_km": 686.4858847212354, "timestamp": "2025-12-26T11:25:45.583953+00:00", "meta": {"OBJECT_NAME": "COSMOS 2251 DEB", "OBJECT_ID": "1993-036FT", "EPOCH": "2025-12-26T00:41:33.415872", "MEAN_MOTION": 14.66477039, "ECCENTRICITY": 0.0022413, "INCLINATION": 74.0099, "RA_OF_ASC_NODE": 321.4385, "ARG_OF_PERICENTER": 155.457, "MEAN_ANOMALY": 275.2286, "EPHEMERIS_TYPE": 0, "CLASSIFICATION_TYPE": "U", "NORAD_CAT_ID": 33984, "ELEMENT_SET_NO": 999, "REV_AT_EPOCH": 89261, "BSTAR": 0.0008547, "MEAN_MOTION_DOT": 4.723e-05, "MEAN_MOTION_DDOT": 0}, "tle": {"line1": "1 33984U 93036FT  25360.02885898  .00004723  00000+0  85470-3 0  9994", "line2": "2 33984  74.0099 321.4385 0022413 155.4570 275.2286 14.66477039892618"}}, "geometry": {"type": "Point", "coordinates": [-123.242408730221, -73.91103534495704]}}, {"type": "Feature", "properties": {"norad_id": 33986, "name": "COSMOS 2251 DEB", "group": "cosmos-2251-debris", "lat": -31.528429099279634, "lon": 107.27205005217478, "alt_km": 773.7091317819422, "timestamp": "2025-12-26T11:25:45.583962+00:00", "meta": {"OBJECT_NAME": "COSMOS 2251 DEB", "OBJECT_ID": "1993-036FV", "EPOCH": "2025-12-24T20:26:35.700576", "MEAN_MOTION": 14.43260292, "ECCENTRICITY": 0.00410855, "INCLINATION": 74.0366, "RA_OF_ASC_NODE": 280.1744, "ARG_OF_PERICENTER": 350.3243, "MEAN_ANOMALY": 66.1991, "EPHEMERIS_TYPE": 0, "CLASSIFICATION_TYPE": "U", "NORAD_CAT_ID": 33986, "ELEMENT_SET_NO": 999, "REV_AT_EPOCH": 88203, "BSTAR": 0.00070852763, "MEAN_MOTION_DOT": 2.383e-05, "MEAN_MOTION_DDOT": 0}, "tle": {"line1": "1 33986U 93036FV  25358.85180209  .00002383  00000+0  70853-3 0  9997", "line2": "2 33986  74.0366 280.1744 0041085 350.3243  66.1991 14.43260292882037"}}, "geometry": {"type": "Point", "coordinates": [107.27205005217478, -31.528429099279634]}}, {"type": "Feature", "properties": {"norad_id": 33990, "name": "COSMOS 2251 DEB", "group": "cosmos-2251-debris", "lat": -17.261806988889592, "lon": -101.19792698817736, "alt_km": 917.3732019583558, "timestamp": "2025-12-26T11:25:45.583971+00:00", "meta": {"OBJECT_NAME": "COSMOS 2251 DEB", "OBJECT_ID": "1993-036FZ", "EPOCH": "2025-12-26T03:16:49.456128", "MEAN_MOTION": 13.50016513, "ECCENTRICITY": 0.0407272, "INCLINATION": 73.9282, "RA_OF_ASC_NODE": 264.4862, "ARG_OF_PERICENTER": 282.3821, "MEAN_ANOMALY": 206.1753, "EPHEMERIS_TYPE": 0, "CLASSIFICATION_TYPE": "U", "NORAD_CAT_ID": 33990, "ELEMENT_SET_NO": 999, "REV_AT_EPOCH": 82910, "BSTAR": 0.00072192, "MEAN_MOTION_DOT": 7.45e-06, "MEAN_MOTION_DDOT": 0}, "tle": {"line1": "1 33990U 93036FZ  25360.13668352  .00000745  00000+0  72192-3 0  9994", "line2": "2 33990  73.9282 264.4862 0407272 282.3821 206.1753 13.50016513829106"}}, "geometry": {"type": "Point", "coordinates": [-101.19792698817736, -17.261806988889592]}}, {"type": "Feature", "properties": {"norad_id": 33992, "name": "COSMOS 2251 DEB", "group": "cosmos-2251-debris", "lat": 50.2024113757519, "lon": 111.12769198375246, "alt_km": 650.5120837647037, "timestamp": "2025-12-26T11:25:45.583980+00:00", "meta": {"OBJECT_NAME": "COSMOS 2251 DEB", "OBJECT_ID": "1993-036GB", "EPOCH": "2025-12-25T23:42:31.497984", "MEAN_MOTION": 14.66322147, "ECCENTRICITY": 0.0051929, "INCLINATION": 74.0248, "RA_OF_ASC_NODE": 312.1814, "ARG_OF_PERICENTER": 65.9916, "MEAN_ANOMALY": 3.5037, "EPHEMERIS_TYPE": 0, "CLASSIFICATION_TYPE": "U", "NORAD_CAT_ID": 33992, "ELEMENT_SET_NO": 999, "REV_AT_EPOCH": 89319, "BSTAR": 0.0008513, "MEAN_MOTION_DOT": 4.765e-05, "MEAN_MOTION_DDOT": 0}, "tle": {"line1": "1 33992U 93036GB  25359.98786456  .00004765  00000+0  85130-3 0  9995", "line2": "2 33992  74.0248 312.1814 0051929  65.9916   3.5037 14.66322147893199"}}, "geometry": {"type": "Point", "coordinates": [111.12769198375246, 50.2024113757519]}}, {"type": "Feature", "properties": {"norad_id": 33994, "name": "COSMOS 2251 DEB", "group": "cosmos-2251-debris", "lat": -57.44378799999389, "lon": 11.617273888651738, "alt_km": 751.534436507598, "timestamp": "2025-12-26T11:25:45.583989+00:00", "meta": {"OBJECT_NAME": "COSMOS 2251 DEB", "OBJECT_ID": "1993-036GD", "EPOCH": "2025-12-26T04:11:22.280352", "MEAN_MOTION": 14.41222826, "ECCENTRICITY": 0.0024034, "INCLINATION": 74.0415, "RA_OF_ASC_NODE": 165.5477, "ARG_OF_PERICENTER": 297.6313, "MEAN_ANOMALY": 179.2881, "EPHEMERIS_TYPE": 0, "CLASSIFICATION_TYPE": "U", "NORAD_CAT_ID": 33994, "ELEMENT_SET_NO": 999, "REV_AT_EPOCH": 88613, "BSTAR": 9.9173e-05, "MEAN_MOTION_DOT": 2.95e-06, "MEAN_MOTION_DDOT": 0}, "tle": {"line1": "1 33994U 93036GD  25360.17456343  .00000295  00000+0  99173-4 0  9996", "line2": "2 33994  74.0415 165.5477 0024034 297.6313 179.2881 14.41222826886134"}}, "geometry": {"type": "Point", "coordinates": [11.617273888651738, -57.44378799999389]}}, {"type": "Feature", "properties": {"norad_id": 33995, "name": "COSMOS 2251 DEB", "group": "cosmos-2251-debris", "lat": -0.2070729657319566, "lon": 94.16266051335545, "alt_km": 788.8545236972514, "timestamp": "2025-12-26T11:25:45.583998+00:00", "meta": {"OBJECT_NAME": "COSMOS 2251 DEB", "OBJECT_ID": "1993-036GE", "EPOCH": "2025-12-25T17:01:24.888576", "MEAN_MOTION": 14.34833679, "ECCENTRICITY": 0.00592298, "INCLINATION": 74.0614, "RA_OF_ASC_NODE": 95.6244, "ARG_OF_PERICENTER": 106.3202, "MEAN_ANOMALY": 254.4476, "EPHEMERIS_TYPE": 0, "CLASSIFICATION_TYPE": "U", "NORAD_CAT_ID": 33995, "ELEMENT_SET_NO": 999, "REV_AT_EPOCH": 87705, "BSTAR": 0.00083404583, "MEAN_MOTION_DOT": 2.39e-05, "MEAN_MOTION_DDOT": 0}, "tle": {"line1": "1 33995U 93036GE  25359.70931584  .00002390  00000+0  83405-3 0  9997", "line2": "2 33995  74.0614  95.6244 0059229 106.3202 254.4476 14.34833679877051"}}, "geometry": {"type": "Point", "coordinates": [94.16266051335545, -0.2070729657319566]}}, {"type": "Feature", "properties": {"norad_id": 33999, "name": "COSMOS 2251 DEB", "group": "cosmos-2251-debris", "lat": 41.60717711998495, "lon": -141.7789452408419, "alt_km": 594.5654867217772, "timestamp": "2025-12-26T11:25:45.584007+00:00", "meta": {"OBJECT_NAME": "COSMOS 2251 DEB", "OBJECT_ID": "1993-036GJ", "EPOCH": "2025-12-25T15:48:48.190176", "MEAN_MOTION": 14.83609193, "ECCENTRICITY": 0.0044371, "INCLINATION": 73.9178, "RA_OF_ASC_NODE": 205.0064, "ARG_OF_PERICENTER": 96.554, "MEAN_ANOMALY": 264.0692, "EPHEMERIS_TYPE": 0, "CLASSIFICATION_TYPE": "U", "NORAD_CAT_ID": 33999, "ELEMENT_SET_NO": 999, "REV_AT_EPOCH": 89442, "BSTAR": 0.0012836, "MEAN_MOTION_DOT": 0.00010754, "MEAN_MOTION_DDOT": 0}, "tle": {"line1": "1 33999U 93036GJ  25359.65889109  .00010754  00000+0  12836-2 0  9992", "line2": "2 33999  73.9178 205.0064 0044371  96.5540 264.0692 14.83609193894425"}}, "geometry": {"type": "Point", "coordinates": [-141.7789452408419, 41.60717711998495]}}]}